GLOBALSTAR M067 [+]     
1 32263U 07048A   24041.92898142 -.00000062  00000+0  26632-3 0  9999
2 32263  51.9742  36.2780 0000858  25.5780  51.9231 12.40637892748383
GLOBALSTAR M070 [+]     
1 32264U 07048B   24041.80238505 -.00000094  00000+0  56548-4 0  9993
2 32264  51.9728 188.4653 0001270 102.3442  45.1593 12.62286311751486
GLOBALSTAR M066 [+]     
1 32265U 07048C   24041.44806865 -.00000083  00000+0  11587-3 0  9995
2 32265  51.9685  51.5565 0000515 251.4041 274.2406 12.62259787753705
GLOBALSTAR M068 [-]     
1 32266U 07048D   24041.90549285 -.00000032  00000+0  39922-3 0  9994
2 32266  51.9914   2.8385 0000996 116.7534 261.5788 12.62778887755366
GLOBALSTAR M079 [+]     
1 37188U 10054A   24041.82980998 -.00000106  00000+0 -97381-5 0  9992
2 37188  52.0014 198.6004 0000713  93.5274  54.2289 12.62266511614272
GLOBALSTAR M074 [+]     
1 37189U 10054B   24041.86012841 -.00000117  00000+0 -72695-4 0  9992
2 37189  51.9991 197.9074 0001008  98.8324  66.4039 12.62265216614882
GLOBALSTAR M076 [+]     
1 37190U 10054C   24041.63067895 -.00000111  00000+0 -39196-4 0  9991
2 37190  52.0004 198.7346 0001028  67.1064  13.5027 12.62274679614573
GLOBALSTAR M077 [+]     
1 37191U 10054D   24041.79486088 -.00000097  00000+0  36030-4 0  9994
2 37191  52.0063 154.9481 0000922 108.7557  58.6327 12.62269313614969
